{"type": "FeatureCollection", "features": [ {"type": "Feature", "properties": {"norad_id": 34685, "name": "COSMOS 2251 DEB", "group": "cosmos-2251-debris", "lat": -1.82748512057833, "lon": 120.82789422000964, "alt_km": 710.3302524439505, "timestamp": "2025-12-27T03:58:44.541802+00:00", "meta": {"OBJECT_NAME": "COSMOS 2251 DEB", "OBJECT_ID": "1993-036YF", "EPOCH": "2025-12-26T14:54:43.184160", "MEAN_MOTION": 14.57632396, "ECCENTRICITY": 0.0014147, "INCLINATION": 74.0295, "RA_OF_ASC_NODE": 122.3864, "ARG_OF_PERICENTER": 227.7376, "MEAN_ANOMALY": 154.4807, "EPHEMERIS_TYPE": 0, "CLASSIFICATION_TYPE": "U", "NORAD_CAT_ID": 34685, "ELEMENT_SET_NO": 999, "REV_AT_EPOCH": 88734, "BSTAR": 0.0011969, "MEAN_MOTION_DOT": 5.438e-05, "MEAN_MOTION_DDOT": 0}, "tle": {"line1": "1 34685U 93036YF  25360.62133315  .00005438  00000+0  11969-2 0  9994", "line2": "2 34685  74.0295 122.3864 0014147 227.7376 154.4807 14.57632396887347"}}, "geometry": {"type": "Point", "coordinates": [120.82789422000964, -1.82748512057833]}}, {"type": "Feature", "properties": {"norad_id": 34689, "name": "COSMOS 2251 DEB", "group": "cosmos-2251-debris", "lat": -28.08098125044823, "lon": -170.46102958741253, "alt_km": 815.6317243207986, "timestamp": "2025-12-27T03:58:44.541811+00:00", "meta": {"OBJECT_NAME": "COSMOS 2251 DEB", "OBJECT_ID": "1993-036YK", "EPOCH": "2025-12-26T14:43:37.408224", "MEAN_MOTION": 14.04610227, "ECCENTRICITY": 0.0226452, "INCLINATION": 74.0872, "RA_OF_ASC_NODE": 199.2539, "ARG_OF_PERICENTER": 265.0124, "MEAN_ANOMALY": 152.4222, "EPHEMERIS_TYPE": 0, "CLASSIFICATION_TYPE": "U", "NORAD_CAT_ID": 34689, "ELEMENT_SET_NO": 999, "REV_AT_EPOCH": 84536, "BSTAR": 0.0031359, "MEAN_MOTION_DOT": 6.283e-05, "MEAN_MOTION_DDOT": 0}, "tle": {"line1": "1 34689U 93036YK  25360.61362741  .00006283  00000+0  31359-2 0  9998", "line2": "2 34689  74.0872 199.2539 0226452 265.0124 152.4222 14.04610227845360"}}, "geometry": {"type": "Point", "coordinates": [-170.46102958741253, -28.08098125044823]}}, {"type": "Feature", "properties": {"norad_id": 34721, "name": "COSMOS 2251 DEB", "group": "cosmos-2251-debris", "lat": -34.16150393316258, "lon": -70.06725126151053, "alt_km": 897.8487340395268, "timestamp": "2025-12-27T03:58:44.541820+00:00", "meta": {"OBJECT_NAME": "COSMOS 2251 DEB", "OBJECT_ID": "1993-036YP", "EPOCH": "2025-12-26T19:42:50.469408", "MEAN_MOTION": 13.96904496, "ECCENTRICITY": 0.0222511, "INCLINATION": 73.9226, "RA_OF_ASC_NODE": 301.8159, "ARG_OF_PERICENTER": 238.149, "MEAN_ANOMALY": 152.4925, "EPHEMERIS_TYPE": 0, "CLASSIFICATION_TYPE": "U", "NORAD_CAT_ID": 34721, "ELEMENT_SET_NO": 999, "REV_AT_EPOCH": 85346, "BSTAR": 0.001009, "MEAN_MOTION_DOT": 1.706e-05, "MEAN_MOTION_DDOT": 0}, "tle": {"line1": "1 34721U 93036YP  25360.82141747  .00001706  00000+0  10090-2 0  9993", "line2": "2 34721  73.9226 301.8159 0222511 238.1490 152.4925 13.96904496853460"}}, "geometry": {"type": "Point", "coordinates": [-70.06725126151053, -34.16150393316258]}}, {"type": "Feature", "properties": {"norad_id": 34722, "name": "COSMOS 2251 DEB", "group": "cosmos-2251-debris", "lat": -64.77027220903821, "lon": 168.21723905267757, "alt_km": 744.208071035062, "timestamp": "2025-12-27T03:58:44.541829+00:00", "meta": {"OBJECT_NAME": "COSMOS 2251 DEB", "OBJECT_ID": "1993-036YQ", "EPOCH": "2025-12-25T22:10:17.507136", "MEAN_MOTION": 14.11971511, "ECCENTRICITY": 0.0166401, "INCLINATION": 73.8736, "RA_OF_ASC_NODE": 312.5518, "ARG_OF_PERICENTER": 235.7883, "MEAN_ANOMALY": 183.3029, "EPHEMERIS_TYPE": 0, "CLASSIFICATION_TYPE": "U", "NORAD_CAT_ID": 34722, "ELEMENT_SET_NO": 999, "REV_AT_EPOCH": 86431, "BSTAR": 0.00064598, "MEAN_MOTION_DOT": 1.32e-05, "MEAN_MOTION_DDOT": 0}, "tle": {"line1": "1 34722U 93036YQ  25359.92381374  .00001320  00000+0  64598-3 0  9990", "line2": "2 34722  73.8736 312.5518 0166401 235.7883 183.3029 14.11971511864312"}}, "geometry": {"type": "Point", "coordinates": [168.21723905267757, -64.77027220903821]}}, {"type": "Feature", "properties": {"norad_id": 34726, "name": "COSMOS 2251 DEB", "group": "cosmos-2251-debris", "lat": -43.25430777549731, "lon": 154.43466837744853, "alt_km": 715.8014945905179, "timestamp": "2025-12-27T03:58:44.541839+00:00", "meta": {"OBJECT_NAME": "COSMOS 2251 DEB", "OBJECT_ID": "1993-036YU", "EPOCH": "2025-12-26T15:26:18.564288", "MEAN_MOTION": 14.59537968, "ECCENTRICITY": 0.0041679, "INCLINATION": 74.0294, "RA_OF_ASC_NODE": 319.8001, "ARG_OF_PERICENTER": 106.0829, "MEAN_ANOMALY": 254.4931, "EPHEMERIS_TYPE": 0, "CLASSIFICATION_TYPE": "U", "NORAD_CAT_ID": 34726, "ELEMENT_SET_NO": 999, "REV_AT_EPOCH": 88705, "BSTAR": 0.00051829, "MEAN_MOTION_DOT": 2.463e-05, "MEAN_MOTION_DDOT": 0}, "tle": {"line1": "1 34726U 93036YU  25360.64327042  .00002463  00000+0  51829-3 0  9999", "line2": "2 34726  74.0294 319.8001 0041679 106.0829 254.4931 14.59537968887058"}}, "geometry": {"type": "Point", "coordinates": [154.43466837744853, -43.25430777549731]}}, {"type": "Feature", "properties": {"norad_id": 34728, "name": "COSMOS 2251 DEB", "group": "cosmos-2251-debris", "lat": -24.968552406808307, "lon": -143.94299480667146, "alt_km": 641.8573085041635, "timestamp": "2025-12-27T03:58:44.541848+00:00", "meta": {"OBJECT_NAME": "COSMOS 2251 DEB", "OBJECT_ID": "1993-036YW", "EPOCH": "2025-12-26T18:18:10.094112", "MEAN_MOTION": 14.70962251, "ECCENTRICITY": 0.0041746, "INCLINATION": 74.0156, "RA_OF_ASC_NODE": 224.5108, "ARG_OF_PERICENTER": 18.4003, "MEAN_ANOMALY": 341.8666, "EPHEMERIS_TYPE": 0, "CLASSIFICATION_TYPE": "U", "NORAD_CAT_ID": 34728, "ELEMENT_SET_NO": 999, "REV_AT_EPOCH": 89006, "BSTAR": 0.00065235, "MEAN_MOTION_DOT": 4.022e-05, "MEAN_MOTION_DDOT": 0}, "tle": {"line1": "1 34728U 93036YW  25360.76261683  .00004022  00000+0  65235-3 0  9991", "line2": "2 34728  74.0156 224.5108 0041746  18.4003 341.8666 14.70962251890063"}}, "geometry": {"type": "Point", "coordinates": [-143.94299480667146, -24.968552406808307]}}, {"type": "Feature", "properties": {"norad_id": 34729, "name": "COSMOS 2251 DEB", "group": "cosmos-2251-debris", "lat": -68.42689589092463, "lon": -163.69765067858464, "alt_km": 634.5112704403891, "timestamp": "2025-12-27T03:58:44.541857+00:00", "meta": {"OBJECT_NAME": "COSMOS 2251 DEB", "OBJECT_ID": "1993-036YX", "EPOCH": "2025-12-26T16:18:00.675072", "MEAN_MOTION": 14.83203682, "ECCENTRICITY": 0.0012108, "INCLINATION": 74.0185, "RA_OF_ASC_NODE": 330.8111, "ARG_OF_PERICENTER": 82.6009, "MEAN_ANOMALY": 95.4353, "EPHEMERIS_TYPE": 0, "CLASSIFICATION_TYPE": "U", "NORAD_CAT_ID": 34729, "ELEMENT_SET_NO": 999, "REV_AT_EPOCH": 88664, "BSTAR": 0.0021254, "MEAN_MOTION_DOT": 0.00017393, "MEAN_MOTION_DDOT": 0}, "tle": {"line1": "1 34729U 93036YX  25360.67917448  .00017393  00000+0  21254-2 0  9996", "line2": "2 34729  74.0185 330.8111 0012108  82.6009  95.4353 14.83203682886644"}}, "geometry": {"type": "Point", "coordinates": [-163.69765067858464, -68.42689589092463]}}, {"type": "Feature", "properties": {"norad_id": 34732, "name": "COSMOS 2251 DEB", "group": "cosmos-2251-debris", "lat": 63.973920856610036, "lon": 102.09376752705309, "alt_km": 751.1992804453603, "timestamp": "2025-12-27T03:58:44.541866+00:00", "meta": {"OBJECT_NAME": "COSMOS 2251 DEB", "OBJECT_ID": "1993-036ZA", "EPOCH": "2025-12-26T11:09:52.231104", "MEAN_MOTION": 14.47315667, "ECCENTRICITY": 0.0040042, "INCLINATION": 74.0455, "RA_OF_ASC_NODE": 67.5387, "ARG_OF_PERICENTER": 215.9347, "MEAN_ANOMALY": 164.6286, "EPHEMERIS_TYPE": 0, "CLASSIFICATION_TYPE": "U", "NORAD_CAT_ID": 34732, "ELEMENT_SET_NO": 999, "REV_AT_EPOCH": 88342, "BSTAR": 0.00014622, "MEAN_MOTION_DOT": 5.13e-06, "MEAN_MOTION_DDOT": 0}, "tle": {"line1": "1 34732U 93036ZA  25360.46518786  .00000513  00000+0  14622-3 0  9997", "line2": "2 34732  74.0455  67.5387 0040042 215.9347 164.6286 14.47315667883425"}}, "geometry": {"type": "Point", "coordinates": [102.09376752705309, 63.973920856610036]}}, {"type": "Feature", "properties": {"norad_id": 34736, "name": "COSMOS 2251 DEB", "group": "cosmos-2251-debris", "lat": -21.105503785412477, "lon": -2.052491708494992, "alt_km": 379.356759017488, "timestamp": "2025-12-27T03:58:44.541875+00:00", "meta": {"OBJECT_NAME": "COSMOS 2251 DEB", "OBJECT_ID": "1993-036ZE", "EPOCH": "2025-12-26T11:09:44.310816", "MEAN_MOTION": 15.6128001, "ECCENTRICITY": 0.0009292, "INCLINATION": 73.9968, "RA_OF_ASC_NODE": 5.8756, "ARG_OF_PERICENTER": 335.4778, "MEAN_ANOMALY": 24.5997, "EPHEMERIS_TYPE": 0, "CLASSIFICATION_TYPE": "U", "NORAD_CAT_ID": 34736, "ELEMENT_SET_NO": 999, "REV_AT_EPOCH": 88661, "BSTAR": 0.0094893, "MEAN_MOTION_DOT": 0.00885322, "MEAN_MOTION_DDOT": 0}, "tle": {"line1": "1 34736U 93036ZE  25360.46509619  .00885322  00000+0  94893-2 0  9992", "line2": "2 34736  73.9968   5.8756 0009292 335.4778  24.5997 15.61280010886616"}}, "geometry": {"type": "Point", "coordinates": [-2.052491708494992, -21.105503785412477]}}, {"type": "Feature", "properties": {"norad_id": 34738, "name": "COSMOS 2251 DEB", "group": "cosmos-2251-debris", "lat": 47.99601454410553, "lon": 134.8638010458576, "alt_km": 762.5252975900039, "timestamp": "2025-12-27T03:58:44.541884+00:00", "meta": {"OBJECT_NAME": "COSMOS 2251 DEB", "OBJECT_ID": "1993-036ZG", "EPOCH": "2025-12-26T14:30:55.417248", "MEAN_MOTION": 14.46334745, "ECCENTRICITY": 0.0047601, "INCLINATION": 74.0158, "RA_OF_ASC_NODE": 117.3521, "ARG_OF_PERICENTER": 261.0965, "MEAN_ANOMALY": 109.572, "EPHEMERIS_TYPE": 0, "CLASSIFICATION_TYPE": "U", "NORAD_CAT_ID": 34738, "ELEMENT_SET_NO": 999, "REV_AT_EPOCH": 88059, "BSTAR": 0.00037173, "MEAN_MOTION_DOT": 1.324e-05, "MEAN_MOTION_DDOT": 0}, "tle": {"line1": "1 34738U 93036ZG  25360.60480807  .00001324  00000+0  37173-3 0  9998", "line2": "2 34738  74.0158 117.3521 0047601 261.0965 109.5720 14.46334745880594"}}, "geometry": {"type": "Point", "coordinates": [134.8638010458576, 47.99601454410553]}}]}